{
  "norad_id": 67041,
  "name": "STARLINK-35765",
  "history": [
    {
      "epoch": "2026-03-28T22:42:52.114464",
      "apogee_km": 485.04982179844774,
      "perigee_km": 480.8494645554947,
      "latitude_deg": 6.530870467760971,
      "longitude_deg": -105.04209503997117,
      "semi_major_axis_km": 6861.086643176971,
      "eccentricity": 0.0003061,
      "inclination_deg": 42.9999,
      "raan_deg": 289.3815,
      "arg_perigee_deg": 250.1346,
      "mean_anomaly_deg": 109.9176,
      "mean_motion_rev_day": 15.27613214
    }
  ]
}